STARLINK-30442
1 57868U 23144E   26061.16668981  .02263727  00000+0  80983-1 0  9995
2 57868  43.0012 327.6254 0001423 250.7747 235.2269 15.24803355  5827
